start=new Date('2022-08-06T00:00:00.000Z').valueOf();
sats=[{"RCS_SIZE":"LARGE","CENTER_NAME":"EARTH","FILE":"3530042","MEAN_MOTION_DDOT":"0.0000000000000","RA_OF_ASC_NODE":"349.6313","APOAPSIS":"540.756","INCLINATION":"53.2175","REF_FRAME":"TEME","EPOCH":"2022-08-05T12:48:41.217696","SEMIMAJOR_AXIS":"6917.874","ARG_OF_PERICENTER":"54.7447","ELEMENT_SET_NO":"999","EPHEMERIS_TYPE":"0","TLE_LINE1":"1 49449U 21104AT  22217.53381039  .00001777  00000-0  12973-3 0  9991","GP_ID":"209657851","TIME_SYSTEM":"UTC","NORAD_CAT_ID":"49449","LAUNCH_DATE":"2021-11-13","OBJECT_TYPE":"PAYLOAD","PERIAPSIS":"538.722","MEAN_ANOMALY":"305.3683","MEAN_ELEMENT_THEORY":"SGP4","ECCENTRICITY":"0.00014700","COUNTRY_CODE":"US","MEAN_MOTION_DOT":"0.00001777","REV_AT_EPOCH":"4068","MEAN_MOTION":"15.08841999","CLASSIFICATION_TYPE":"U","BSTAR":"0.00012973000000","OBJECT_NAME":"STARLINK-3137","OBJECT_ID":"2021-104AT","PERIOD":"95.437","TLE_LINE2":"2 49449  53.2175 349.6313 0001470  54.7447 305.3683 15.08841999 40687","SITE":"AFETR","DECAY_DATE":null},{"TLE_LINE2":"2 49450  53.2174 348.6971 0001631  60.5010 299.6145 15.08839705 40979","PERIOD":"95.438","OBJECT_NAME":"STARLINK-3127","OBJECT_ID":"2021-104AU","DECAY_DATE":null,"SITE":"AFETR","MEAN_MOTION":"15.08839705","REV_AT_EPOCH":"4097","BSTAR":"0.00005628200000","CLASSIFICATION_TYPE":"U","MEAN_MOTION_DOT":"0.00000608","PERIAPSIS":"538.618","OBJECT_TYPE":"PAYLOAD","COUNTRY_CODE":"US","ECCENTRICITY":"0.00016310","MEAN_ELEMENT_THEORY":"SGP4","MEAN_ANOMALY":"299.6145","GP_ID":"209659102","TLE_LINE1":"1 49450U 21104AU  22217.73989538  .00000608  00000-0  56282-4 0  9997","EPHEMERIS_TYPE":"0","LAUNCH_DATE":"2021-11-13","NORAD_CAT_ID":"49450","TIME_SYSTEM":"UTC","ARG_OF_PERICENTER":"60.5010","ELEMENT_SET_NO":"999","REF_FRAME":"TEME","SEMIMAJOR_AXIS":"6917.881","EPOCH":"2022-08-05T17:45:26.960832","FILE":"3530042","CENTER_NAME":"EARTH","RCS_SIZE":"LARGE","INCLINATION":"53.2174","APOAPSIS":"540.875","RA_OF_ASC_NODE":"348.6971","MEAN_MOTION_DDOT":"0.0000000000000"},{"MEAN_MOTION_DOT":"0.00000515","OBJECT_TYPE":"PAYLOAD","PERIAPSIS":"538.522","MEAN_ELEMENT_THEORY":"SGP4","MEAN_ANOMALY":"300.5377","ECCENTRICITY":"0.00017480","COUNTRY_CODE":"US","OBJECT_NAME":"STARLINK-3125","OBJECT_ID":"2021-104AV","PERIOD":"95.437","TLE_LINE2":"2 49451  53.2191 348.7511 0001748  59.5788 300.5377 15.08844536 40718","SITE":"AFETR","DECAY_DATE":null,"REV_AT_EPOCH":"4071","MEAN_MOTION":"15.08844536","CLASSIFICATION_TYPE":"U","BSTAR":"0.00005043100000","REF_FRAME":"TEME","EPOCH":"2022-08-05T17:29:32.759232","SEMIMAJOR_AXIS":"6917.867","RCS_SIZE":"LARGE","CENTER_NAME":"EARTH","FILE":"3530042","MEAN_MOTION_DDOT":"0.0000000000000","RA_OF_ASC_NODE":"348.7511","APOAPSIS":"540.941","INCLINATION":"53.2191","EPHEMERIS_TYPE":"0","GP_ID":"209658844","TLE_LINE1":"1 49451U 21104AV  22217.72885138  .00000515  00000-0  50431-4 0  9995","TIME_SYSTEM":"UTC","LAUNCH_DATE":"2021-11-13","NORAD_CAT_ID":"49451","ARG_OF_PERICENTER":"59.5788","ELEMENT_SET_NO":"999"},{"ECCENTRICITY":"0.00014120","COUNTRY_CODE":"US","MEAN_ELEMENT_THEORY":"SGP4","MEAN_ANOMALY":"292.5294","PERIAPSIS":"538.776","OBJECT_TYPE":"PAYLOAD","MEAN_MOTION_DOT":"-0.00001122","BSTAR":"-0.00005240500000","CLASSIFICATION_TYPE":"U","MEAN_MOTION":"15.08837458","REV_AT_EPOCH":"4072","DECAY_DATE":null,"SITE":"AFETR","TLE_LINE2":"2 49452  53.2196 348.5043 0001412  67.5848 292.5294 15.08837458 40720","PERIOD":"95.438","OBJECT_NAME":"STARLINK-3150","OBJECT_ID":"2021-104AW","INCLINATION":"53.2196","APOAPSIS":"540.730","RA_OF_ASC_NODE":"348.5043","MEAN_MOTION_DDOT":"0.0000000000000","FILE":"3530042","CENTER_NAME":"EARTH","RCS_SIZE":"LARGE","SEMIMAJOR_AXIS":"6917.888","EPOCH":"2022-08-05T18:45:07.164288","REF_FRAME":"TEME","ELEMENT_SET_NO":"999","ARG_OF_PERICENTER":"67.5848","LAUNCH_DATE":"2021-11-13","NORAD_CAT_ID":"49452","TIME_SYSTEM":"UTC","TLE_LINE1":"1 49452U 21104AW  22217.78133292 -.00001122  00000-0 -52405-4 0  9999","GP_ID":"209657602","EPHEMERIS_TYPE":"0"},{"EPOCH":"2022-08-05T18:54:19.903968","SEMIMAJOR_AXIS":"6917.872","REF_FRAME":"TEME","APOAPSIS":"540.796","INCLINATION":"53.2201","MEAN_MOTION_DDOT":"0.0000000000000","RA_OF_ASC_NODE":"348.4843","FILE":"3530042","CENTER_NAME":"EARTH","RCS_SIZE":"LARGE","TIME_SYSTEM":"UTC","LAUNCH_DATE":"2021-11-13","NORAD_CAT_ID":"49453","EPHEMERIS_TYPE":"0","TLE_LINE1":"1 49453U 21104AX  22217.78773037 -.00000363  00000-0 -47118-5 0  9999","GP_ID":"209658351","ELEMENT_SET_NO":"999","ARG_OF_PERICENTER":"64.1646","MEAN_MOTION_DOT":"-0.00000363","MEAN_ANOMALY":"295.9503","MEAN_ELEMENT_THEORY":"SGP4","COUNTRY_CODE":"US","ECCENTRICITY":"0.00015310","PERIAPSIS":"538.678","OBJECT_TYPE":"PAYLOAD","DECAY_DATE":null,"SITE":"AFETR","PERIOD":"95.437","TLE_LINE2":"2 49453  53.2201 348.4843 0001531  64.1646 295.9503 15.08842661 40728","OBJECT_ID":"2021-104AX","OBJECT_NAME":"STARLINK-3129","CLASSIFICATION_TYPE":"U","BSTAR":"-0.00000471180000","REV_AT_EPOCH":"4072","MEAN_MOTION":"15.08842661"},{"PERIOD":"95.438","TLE_LINE2":"2 49454  53.2173 349.3677 0001292  86.5578 273.5562 15.08834465 40694","OBJECT_ID":"2021-104AY","OBJECT_NAME":"STARLINK-3160","DECAY_DATE":null,"SITE":"AFETR","MEAN_MOTION":"15.08834465","REV_AT_EPOCH":"4069","CLASSIFICATION_TYPE":"U","BSTAR":"-0.00005272800000","MEAN_MOTION_DOT":"-0.00001127","PERIAPSIS":"538.869","OBJECT_TYPE":"PAYLOAD","MEAN_ANOMALY":"273.5562","MEAN_ELEMENT_THEORY":"SGP4","COUNTRY_CODE":"US","ECCENTRICITY":"0.00012920","EPHEMERIS_TYPE":"0","GP_ID":"209658603","TLE_LINE1":"1 49454U 21104AY  22217.59269648 -.00001127  00000-0 -52728-4 0  9998","TIME_SYSTEM":"UTC","LAUNCH_DATE":"2021-11-13","NORAD_CAT_ID":"49454","ARG_OF_PERICENTER":"86.5578","ELEMENT_SET_NO":"999","REF_FRAME":"TEME","EPOCH":"2022-08-05T14:13:28.975872","SEMIMAJOR_AXIS":"6917.897","FILE":"3530042","CENTER_NAME":"EARTH","RCS_SIZE":"LARGE","APOAPSIS":"540.656","INCLINATION":"53.2173","MEAN_MOTION_DDOT":"0.0000000000000","RA_OF_ASC_NODE":"349.3677"},{"MEAN_ANOMALY":"306.3302","MEAN_ELEMENT_THEORY":"SGP4","COUNTRY_CODE":"US","ECCENTRICITY":"0.00018080","PERIAPSIS":"538.482","OBJECT_TYPE":"PAYLOAD","MEAN_MOTION_DOT":"0.00000501","CLASSIFICATION_TYPE":"U","BSTAR":"0.00004955000000","MEAN_MOTION":"15.08844002","REV_AT_EPOCH":"4072","DECAY_DATE":null,"SITE":"AFETR","PERIOD":"95.437","TLE_LINE2":"2 49455  53.2193 348.5213 0001808  53.7857 306.3302 15.08844002 40722","OBJECT_ID":"2021-104AZ","OBJECT_NAME":"STARLINK-3145","APOAPSIS":"540.984","INCLINATION":"53.2193","MEAN_MOTION_DDOT":"0.0000000000000","RA_OF_ASC_NODE":"348.5213","CENTER_NAME":"EARTH","FILE":"3530042","RCS_SIZE":"LARGE","EPOCH":"2022-08-05T18:38:26.017728","SEMIMAJOR_AXIS":"6917.868","REF_FRAME":"TEME","ELEMENT_SET_NO":"999","ARG_OF_PERICENTER":"53.7857","TIME_SYSTEM":"UTC","LAUNCH_DATE":"2021-11-13","NORAD_CAT_ID":"49455","EPHEMERIS_TYPE":"0","GP_ID":"209659344","TLE_LINE1":"1 49455U 21104AZ  22217.77669002  .00000501  00000-0  49550-4 0  9999"},{"EPHEMERIS_TYPE":"0","TLE_LINE1":"1 49456U 21104BA  22217.78404458  .00002669  00000-0  18566-3 0  9992","GP_ID":"209658102","TIME_SYSTEM":"UTC","LAUNCH_DATE":"2021-11-13","NORAD_CAT_ID":"49456","ARG_OF_PERICENTER":"52.3763","ELEMENT_SET_NO":"999","REF_FRAME":"TEME","EPOCH":"2022-08-05T18:49:01.451712","SEMIMAJOR_AXIS":"6917.852","RCS_SIZE":"LARGE","CENTER_NAME":"EARTH","FILE":"3530042","MEAN_MOTION_DDOT":"0.0000000000000","RA_OF_ASC_NODE":"348.5072","APOAPSIS":"540.637","INCLINATION":"53.2168","OBJECT_NAME":"STARLINK-3124","OBJECT_ID":"2021-104BA","PERIOD":"95.437","TLE_LINE2":"2 49456  53.2168 348.5072 0001330  52.3763 307.7350 15.08849313 40727","DECAY_DATE":null,"SITE":"AFETR","REV_AT_EPOCH":"4072","MEAN_MOTION":"15.08849313","CLASSIFICATION_TYPE":"U","BSTAR":"0.00018566000000","MEAN_MOTION_DOT":"0.00002669","OBJECT_TYPE":"PAYLOAD","PERIAPSIS":"538.797","MEAN_ELEMENT_THEORY":"SGP4","MEAN_ANOMALY":"307.7350","ECCENTRICITY":"0.00013300","COUNTRY_CODE":"US"},{"ELEMENT_SET_NO":"999","ARG_OF_PERICENTER":"65.5268","NORAD_CAT_ID":"49457","LAUNCH_DATE":"2021-11-13","TIME_SYSTEM":"UTC","GP_ID":"209657852","TLE_LINE1":"1 49457U 21104BB  22217.77300582  .00000435  00000-0  45394-4 0  9994","EPHEMERIS_TYPE":"0","INCLINATION":"53.2192","APOAPSIS":"540.539","RA_OF_ASC_NODE":"348.5488","MEAN_MOTION_DDOT":"0.0000000000000","FILE":"3530042","CENTER_NAME":"EARTH","RCS_SIZE":"LARGE","SEMIMAJOR_AXIS":"6917.863","EPOCH":"2022-08-05T18:33:07.702848","REF_FRAME":"TEME","BSTAR":"0.00004539400000","CLASSIFICATION_TYPE":"U","MEAN_MOTION":"15.08845561","REV_AT_EPOCH":"4072","DECAY_DATE":null,"SITE":"AFETR","TLE_LINE2":"2 49457  53.2192 348.5488 0001172  65.5268 294.5846 15.08845561 40720","PERIOD":"95.437","OBJECT_ID":"2021-104BB","OBJECT_NAME":"STARLINK-3132","COUNTRY_CODE":"US","ECCENTRICITY":"0.00011720","MEAN_ELEMENT_THEORY":"SGP4","MEAN_ANOMALY":"294.5846","PERIAPSIS":"538.918","OBJECT_TYPE":"PAYLOAD","MEAN_MOTION_DOT":"0.00000435"},{"REV_AT_EPOCH":"4069","MEAN_MOTION":"15.08844264","CLASSIFICATION_TYPE":"U","BSTAR":"0.00004679700000","OBJECT_NAME":"STARLINK-3156","OBJECT_ID":"2021-104BC","PERIOD":"95.437","TLE_LINE2":"2 49458  53.2204 349.4061 0001903  65.3586 294.7604 15.08844264 40694","DECAY_DATE":null,"SITE":"AFETR","OBJECT_TYPE":"PAYLOAD","PERIAPSIS":"538.416","MEAN_ANOMALY":"294.7604","MEAN_ELEMENT_THEORY":"SGP4","COUNTRY_CODE":"US","ECCENTRICITY":"0.00019030","MEAN_MOTION_DOT":"0.00000457","ARG_OF_PERICENTER":"65.3586","ELEMENT_SET_NO":"999","EPHEMERIS_TYPE":"0","GP_ID":"209659103","TLE_LINE1":"1 49458U 21104BC  22217.58164725  .00000457  00000-0  46797-4 0  9993","TIME_SYSTEM":"UTC","LAUNCH_DATE":"2021-11-13","NORAD_CAT_ID":"49458","RCS_SIZE":"LARGE","FILE":"3530042","CENTER_NAME":"EARTH","RA_OF_ASC_NODE":"349.4061","MEAN_MOTION_DDOT":"0.0000000000000","APOAPSIS":"541.049","INCLINATION":"53.2204","REF_FRAME":"TEME","EPOCH":"2022-08-05T13:57:34.322400","SEMIMAJOR_AXIS":"6917.867"}];
